{
"type": "FeatureCollection",
"name": "pt-fuel",
"crs": { "type": "name", "properties": { "name": "urn:ogc:def:crs:OGC:1.3:CRS84" } },
"features": [
{ "type": "Feature", "properties": { "full_id": "w225760352", "osm_id": "225760352", "osm_type": "way", "amenity": "fuel", "name": "SPBU Manahan", "building": "" }, "geometry": { "type": "MultiPoint", "coordinates": [ [ 110.798290551072853, -7.5540227544492 ] ] } },
{ "type": "Feature", "properties": { "full_id": "w329257083", "osm_id": "329257083", "osm_type": "way", "amenity": "fuel", "name": "", "building": "yes" }, "geometry": { "type": "MultiPoint", "coordinates": [ [ 110.811568088676097, -7.55488334774009 ] ] } },
{ "type": "Feature", "properties": { "full_id": "w329316048", "osm_id": "329316048", "osm_type": "way", "amenity": "fuel", "name": "", "building": "" }, "geometry": { "type": "MultiPoint", "coordinates": [ [ 110.834070546581842, -7.585992035139764 ] ] } },
{ "type": "Feature", "properties": { "full_id": "w350241422", "osm_id": "350241422", "osm_type": "way", "amenity": "fuel", "name": "", "building": "yes" }, "geometry": { "type": "MultiPoint", "coordinates": [ [ 110.801140407716105, -7.57109889927485 ] ] } },
{ "type": "Feature", "properties": { "full_id": "w534456010", "osm_id": "534456010", "osm_type": "way", "amenity": "fuel", "name": "", "building": "" }, "geometry": { "type": "MultiPoint", "coordinates": [ [ 110.81579143479189, -7.541826535500231 ] ] } },
{ "type": "Feature", "properties": { "full_id": "n2341423183", "osm_id": "2341423183", "osm_type": "node", "addr:city": "Surakarta", "amenity": "fuel", "name": "SPBU Solo Balapan", "operator": "Pertamina Indonesia", "building": "" }, "geometry": { "type": "MultiPoint", "coordinates": [ [ 110.8234246, -7.5573234 ] ] } },
{ "type": "Feature", "properties": { "full_id": "n2476273184", "osm_id": "2476273184", "osm_type": "node", "addr:city": "", "amenity": "fuel", "name": "", "operator": "", "building": "yes" }, "geometry": { "type": "MultiPoint", "coordinates": [ [ 110.8521961, -7.5694953 ] ] } },
{ "type": "Feature", "properties": { "full_id": "n3318601178", "osm_id": "3318601178", "osm_type": "node", "addr:city": "", "amenity": "fuel", "name": "SPBU Sumber", "operator": "", "building": "" }, "geometry": { "type": "MultiPoint", "coordinates": [ [ 110.8073282, -7.5455939 ] ] } },
{ "type": "Feature", "properties": { "full_id": "n3318821978", "osm_id": "3318821978", "osm_type": "node", "addr:city": "", "amenity": "fuel", "name": "SPBU Bunderan", "operator": "", "building": "" }, "geometry": { "type": "MultiPoint", "coordinates": [ [ 110.8152219, -7.5803574 ] ] } },
{ "type": "Feature", "properties": { "full_id": "n3320178541", "osm_id": "3320178541", "osm_type": "node", "addr:city": "", "amenity": "fuel", "name": "SPBU Bhayangkara", "operator": "", "building": "" }, "geometry": { "type": "MultiPoint", "coordinates": [ [ 110.8101785, -7.5737207 ] ] } }
]
}
